UNKNOWN                 
1 82381U          26043.59187087  .00023784  00000+0  28244-2 0  9997
2 82381  98.3957 276.3926 0009082 316.7652  43.2847 14.84418145519978
UNKNOWN                 
1 82402U          26044.17954439  .00006630  00000+0  47074-3 0  9993
2 82402  86.6657 128.6257 0006220 301.9196  58.1433 15.04552902463859
UNKNOWN                 
1 82432U          26042.90383870  .00001805  00000+0  38394-3 0  9994
2 82432  74.0061 223.9047 0055390  12.1952 348.0539 14.58846344491821
UNKNOWN                 
1 82448U          26043.75523529  .00007512  00000+0  53047-3 0  9995
2 82448  85.8764 166.1804 0009060  42.6106 317.5829 15.04749283446367
UNKNOWN                 
1 82453U          26043.81240467  .00000018  00000+0  46503-3 0  9998
2 82453 102.1878   5.1582 0093833  92.4062 268.7747 12.39707821553757
UNKNOWN                 
1 82458U          26027.80523470  .00004849  00000+0  21370-2 0  9992
2 82458  66.5137  63.4517 0057759 335.2450  24.5873 14.23291843616591
UNKNOWN                 
1 82484U          26044.02545940  .00000128  00000+0  24176-3 0  9994
2 82484  99.3531  67.4390 0044907  37.1838 323.2397 13.55822131599071
UNKNOWN                 
1 82494U          26040.05178925  .00015271  00000+0  16351-2 0  9999
2 82494  74.0073 265.4394 0003938  41.7510 318.3971 14.88701283 93639
UNKNOWN                 
1 82500U          26034.85359289  .00003871  00000+0  17524-2 0  9998
2 82500  70.9644 251.4033 0117114  33.9891 326.8664 14.19001250626487
UNKNOWN                 
1 82524U          26043.03992810  .00005013  00000+0  15708-2 0  9999
2 82524  73.2804  64.1166 0133738 191.3176 199.2999 14.35888652585831
UNKNOWN                 
1 82529U          26040.45841759  .00000416  00000+0  69666-3 0  9997
2 82529  99.7830 126.9925 0239238  97.8199 324.2623 13.41173397597617
UNKNOWN                 
1 82560U          26036.80644750  .00001803  00000+0  14806-2 0  9994
2 82560  99.9947 348.4517 0009590 155.6479 233.9346 13.90827140619520
