CCSDS_OMM_VERS = 2.0
CREATION_DATE  = 
ORIGINATOR     = 

OBJECT_NAME    = UNKNOWN
OBJECT_ID      = 
CENTER_NAME    = EARTH
REF_FRAME      = TEME
TIME_SYSTEM    = UTC
MEAN_ELEMENT_THEORY = SGP/SGP4

EPOCH          = 2026-02-12T14:12:17.643168
MEAN_MOTION    = 14.84418145
ECCENTRICITY   = .0009082
INCLINATION    = 98.3957
RA_OF_ASC_NODE = 276.3926
ARG_OF_PERICENTER = 316.7652
MEAN_ANOMALY   = 43.2847

EPHEMERIS_TYPE = 0
CLASSIFICATION_TYPE = U
NORAD_CAT_ID   = 82381
ELEMENT_SET_NO = 999
REV_AT_EPOCH   = 51997
BSTAR          = .28244E-2
MEAN_MOTION_DOT = .23784E-3
MEAN_MOTION_DDOT = 0

CCSDS_OMM_VERS = 2.0
CREATION_DATE  = 
ORIGINATOR     = 

OBJECT_NAME    = UNKNOWN
OBJECT_ID      = 
CENTER_NAME    = EARTH
REF_FRAME      = TEME
TIME_SYSTEM    = UTC
MEAN_ELEMENT_THEORY = SGP/SGP4

EPOCH          = 2026-02-13T04:18:32.635296
MEAN_MOTION    = 15.04552902
ECCENTRICITY   = .000622
INCLINATION    = 86.6657
RA_OF_ASC_NODE = 128.6257
ARG_OF_PERICENTER = 301.9196
MEAN_ANOMALY   = 58.1433

EPHEMERIS_TYPE = 0
CLASSIFICATION_TYPE = U
NORAD_CAT_ID   = 82402
ELEMENT_SET_NO = 999
REV_AT_EPOCH   = 46385
BSTAR          = .47074E-3
MEAN_MOTION_DOT = .663E-4
MEAN_MOTION_DDOT = 0

CCSDS_OMM_VERS = 2.0
CREATION_DATE  = 
ORIGINATOR     = 

OBJECT_NAME    = UNKNOWN
OBJECT_ID      = 
CENTER_NAME    = EARTH
REF_FRAME      = TEME
TIME_SYSTEM    = UTC
MEAN_ELEMENT_THEORY = SGP/SGP4

EPOCH          = 2026-02-11T21:41:31.663680
MEAN_MOTION    = 14.58846344
ECCENTRICITY   = .005539
INCLINATION    = 74.0061
RA_OF_ASC_NODE = 223.9047
ARG_OF_PERICENTER = 12.1952
MEAN_ANOMALY   = 348.0539

EPHEMERIS_TYPE = 0
CLASSIFICATION_TYPE = U
NORAD_CAT_ID   = 82432
ELEMENT_SET_NO = 999
REV_AT_EPOCH   = 49182
BSTAR          = .38394E-3
MEAN_MOTION_DOT = .1805E-4
MEAN_MOTION_DDOT = 0

CCSDS_OMM_VERS = 2.0
CREATION_DATE  = 
ORIGINATOR     = 

OBJECT_NAME    = UNKNOWN
OBJECT_ID      = 
CENTER_NAME    = EARTH
REF_FRAME      = TEME
TIME_SYSTEM    = UTC
MEAN_ELEMENT_THEORY = SGP/SGP4

EPOCH          = 2026-02-12T18:07:32.329056
MEAN_MOTION    = 15.04749283
ECCENTRICITY   = .000906
INCLINATION    = 85.8764
RA_OF_ASC_NODE = 166.1804
ARG_OF_PERICENTER = 42.6106
MEAN_ANOMALY   = 317.5829

EPHEMERIS_TYPE = 0
CLASSIFICATION_TYPE = U
NORAD_CAT_ID   = 82448
ELEMENT_SET_NO = 999
REV_AT_EPOCH   = 44636
BSTAR          = .53047E-3
MEAN_MOTION_DOT = .7512E-4
MEAN_MOTION_DDOT = 0

CCSDS_OMM_VERS = 2.0
CREATION_DATE  = 
ORIGINATOR     = 

OBJECT_NAME    = UNKNOWN
OBJECT_ID      = 
CENTER_NAME    = EARTH
REF_FRAME      = TEME
TIME_SYSTEM    = UTC
MEAN_ELEMENT_THEORY = SGP/SGP4

EPOCH          = 2026-02-12T19:29:51.763488
MEAN_MOTION    = 12.39707821
ECCENTRICITY   = .0093833
INCLINATION    = 102.1878
RA_OF_ASC_NODE = 5.1582
ARG_OF_PERICENTER = 92.4062
MEAN_ANOMALY   = 268.7747

EPHEMERIS_TYPE = 0
CLASSIFICATION_TYPE = U
NORAD_CAT_ID   = 82453
ELEMENT_SET_NO = 999
REV_AT_EPOCH   = 55375
BSTAR          = .46503E-3
MEAN_MOTION_DOT = .18E-6
MEAN_MOTION_DDOT = 0

CCSDS_OMM_VERS = 2.0
CREATION_DATE  = 
ORIGINATOR     = 

OBJECT_NAME    = UNKNOWN
OBJECT_ID      = 
CENTER_NAME    = EARTH
REF_FRAME      = TEME
TIME_SYSTEM    = UTC
MEAN_ELEMENT_THEORY = SGP/SGP4

EPOCH          = 2026-01-27T19:19:32.278080
MEAN_MOTION    = 14.23291843
ECCENTRICITY   = .0057759
INCLINATION    = 66.5137
RA_OF_ASC_NODE = 63.4517
ARG_OF_PERICENTER = 335.2450
MEAN_ANOMALY   = 24.5873

EPHEMERIS_TYPE = 0
CLASSIFICATION_TYPE = U
NORAD_CAT_ID   = 82458
ELEMENT_SET_NO = 999
REV_AT_EPOCH   = 61659
BSTAR          = .2137E-2
MEAN_MOTION_DOT = .4849E-4
MEAN_MOTION_DDOT = 0

CCSDS_OMM_VERS = 2.0
CREATION_DATE  = 
ORIGINATOR     = 

OBJECT_NAME    = UNKNOWN
OBJECT_ID      = 
CENTER_NAME    = EARTH
REF_FRAME      = TEME
TIME_SYSTEM    = UTC
MEAN_ELEMENT_THEORY = SGP/SGP4

EPOCH          = 2026-02-13T00:36:39.692160
MEAN_MOTION    = 13.55822131
ECCENTRICITY   = .0044907
INCLINATION    = 99.3531
RA_OF_ASC_NODE = 67.4390
ARG_OF_PERICENTER = 37.1838
MEAN_ANOMALY   = 323.2397

EPHEMERIS_TYPE = 0
CLASSIFICATION_TYPE = U
NORAD_CAT_ID   = 82484
ELEMENT_SET_NO = 999
REV_AT_EPOCH   = 59907
BSTAR          = .24176E-3
MEAN_MOTION_DOT = .128E-5
MEAN_MOTION_DDOT = 0

CCSDS_OMM_VERS = 2.0
CREATION_DATE  = 
ORIGINATOR     = 

OBJECT_NAME    = UNKNOWN
OBJECT_ID      = 
CENTER_NAME    = EARTH
REF_FRAME      = TEME
TIME_SYSTEM    = UTC
MEAN_ELEMENT_THEORY = SGP/SGP4

EPOCH          = 2026-02-09T01:14:34.591200
MEAN_MOTION    = 14.88701283
ECCENTRICITY   = .0003938
INCLINATION    = 74.0073
RA_OF_ASC_NODE = 265.4394
ARG_OF_PERICENTER = 41.7510
MEAN_ANOMALY   = 318.3971

EPHEMERIS_TYPE = 0
CLASSIFICATION_TYPE = U
NORAD_CAT_ID   = 82494
ELEMENT_SET_NO = 999
REV_AT_EPOCH   = 9363
BSTAR          = .16351E-2
MEAN_MOTION_DOT = .15271E-3
MEAN_MOTION_DDOT = 0

CCSDS_OMM_VERS = 2.0
CREATION_DATE  = 
ORIGINATOR     = 

OBJECT_NAME    = UNKNOWN
OBJECT_ID      = 
CENTER_NAME    = EARTH
REF_FRAME      = TEME
TIME_SYSTEM    = UTC
MEAN_ELEMENT_THEORY = SGP/SGP4

EPOCH          = 2026-02-03T20:29:10.425696
MEAN_MOTION    = 14.19001250
ECCENTRICITY   = .0117114
INCLINATION    = 70.9644
RA_OF_ASC_NODE = 251.4033
ARG_OF_PERICENTER = 33.9891
MEAN_ANOMALY   = 326.8664

EPHEMERIS_TYPE = 0
CLASSIFICATION_TYPE = U
NORAD_CAT_ID   = 82500
ELEMENT_SET_NO = 999
REV_AT_EPOCH   = 62648
BSTAR          = .17524E-2
MEAN_MOTION_DOT = .3871E-4
MEAN_MOTION_DDOT = 0

CCSDS_OMM_VERS = 2.0
CREATION_DATE  = 
ORIGINATOR     = 

OBJECT_NAME    = UNKNOWN
OBJECT_ID      = 
CENTER_NAME    = EARTH
REF_FRAME      = TEME
TIME_SYSTEM    = UTC
MEAN_ELEMENT_THEORY = SGP/SGP4

EPOCH          = 2026-02-12T00:57:29.787840
MEAN_MOTION    = 14.35888652
ECCENTRICITY   = .0133738
INCLINATION    = 73.2804
RA_OF_ASC_NODE = 64.1166
ARG_OF_PERICENTER = 191.3176
MEAN_ANOMALY   = 199.2999

EPHEMERIS_TYPE = 0
CLASSIFICATION_TYPE = U
NORAD_CAT_ID   = 82524
ELEMENT_SET_NO = 999
REV_AT_EPOCH   = 58583
BSTAR          = .15708E-2
MEAN_MOTION_DOT = .5013E-4
MEAN_MOTION_DDOT = 0

CCSDS_OMM_VERS = 2.0
CREATION_DATE  = 
ORIGINATOR     = 

OBJECT_NAME    = UNKNOWN
OBJECT_ID      = 
CENTER_NAME    = EARTH
REF_FRAME      = TEME
TIME_SYSTEM    = UTC
MEAN_ELEMENT_THEORY = SGP/SGP4

EPOCH          = 2026-02-09T11:00:07.279776
MEAN_MOTION    = 13.41173397
ECCENTRICITY   = .0239238
INCLINATION    = 99.7830
RA_OF_ASC_NODE = 126.9925
ARG_OF_PERICENTER = 97.8199
MEAN_ANOMALY   = 324.2623

EPHEMERIS_TYPE = 0
CLASSIFICATION_TYPE = U
NORAD_CAT_ID   = 82529
ELEMENT_SET_NO = 999
REV_AT_EPOCH   = 59761
BSTAR          = .69666E-3
MEAN_MOTION_DOT = .416E-5
MEAN_MOTION_DDOT = 0

CCSDS_OMM_VERS = 2.0
CREATION_DATE  = 
ORIGINATOR     = 

OBJECT_NAME    = UNKNOWN
OBJECT_ID      = 
CENTER_NAME    = EARTH
REF_FRAME      = TEME
TIME_SYSTEM    = UTC
MEAN_ELEMENT_THEORY = SGP/SGP4

EPOCH          = 2026-02-05T19:21:17.064000
MEAN_MOTION    = 13.90827140
ECCENTRICITY   = .000959
INCLINATION    = 99.9947
RA_OF_ASC_NODE = 348.4517
ARG_OF_PERICENTER = 155.6479
MEAN_ANOMALY   = 233.9346

EPHEMERIS_TYPE = 0
CLASSIFICATION_TYPE = U
NORAD_CAT_ID   = 82560
ELEMENT_SET_NO = 999
REV_AT_EPOCH   = 61952
BSTAR          = .14806E-2
MEAN_MOTION_DOT = .1803E-4
MEAN_MOTION_DDOT = 0

